OPTICUBE 04             
1 41851U 16067D   25064.53370487  .00005208  00000+0  35834-3 0  9993
2 41851  98.0909 247.4576 0016039 258.6784 101.2640 15.06277456454538
AEROCUBE 8D             
1 41852U 16067E   25064.46583497  .00014088  00000+0  75042-3 0  9994
2 41852  98.1143 255.5580 0003850 311.8241  48.2660 15.15333082454868
AEROCUBE 8C             
1 41853U 16067F   25064.47843090  .00014117  00000+0  75028-3 0  9991
2 41853  98.0972 253.5492 0006138 231.6646 128.4033 15.15400337454850
PROMETHEUS 2-1          
1 41854U 16067G   25064.52774654  .00052927  00000+0  14230-2 0  9995
2 41854  98.0907 267.3280 0007982 234.6602 125.3895 15.37689770455598
PROMETHEUS 2-3          
1 41855U 16067H   25064.53528352  .00049314  00000+0  13294-2 0  9994
2 41855  98.0848 266.5783 0006931 244.7488 115.3037 15.37633430455598
CORVUS BC2              
1 42846U 17042X   25064.53966400  .00005953  00000+0  46096-3 0  9997
2 42846  97.3708 241.8451 0011669 262.9696  97.0202 15.01740660416616
CORVUS BC1              
1 42847U 17042Y   25064.47291454  .00006539  00000+0  50301-3 0  9996
2 42847  97.3734 242.2385 0010928 237.9800 122.0364 15.01965952416625
MIRATA                  
1 43015U 17073C   25064.45092770  .00062546  00000+0  15589-2 0  9994
2 43015  97.5558 315.9796 0112230  72.3342 289.0117 15.33678481395993
MAKERSAT 0              
1 43016U 17073D   25064.56181143  .00020706  00000+0  90557-3 0  9991
2 43016  97.5346 303.8545 0159835 111.7068 250.1264 15.11225831395212
SIRION PATHFINDER-2     
1 43759U 18099B   25064.37855354  .00009106  00000+0  59043-3 0  9991
2 43759  97.4907 119.6422 0011293 114.7818 245.4587 15.08267350341805
CORVUS BC4              
1 43767U 18099K   25064.58420270  .00006678  00000+0  45014-3 0  9992
2 43767  97.4736 116.0948 0009976 163.8540 196.3008 15.06940493341693
MOVE-II                 
1 43780U 18099Y   25064.45656151  .00099839  00000+0  20722-2 0  9991
2 43780  97.4782 135.1971 0004270 150.2675 209.8817 15.45320977342824
SPACEBEE-7              
1 43816U 18099BL  25064.63686556  .00035794  00000+0  12874-2 0  9992
2 43816  97.5079 133.5316 0007663 101.6183 258.5917 15.28502571342108
SHIELDS 1               
1 43850U 18104B   25064.57832564  .00032941  00000+0  51794-3 0  9998
2 43850  85.0142 103.7893 0009861 143.7517 216.4412 15.53408801346519
SONATE                  
1 44400U 19038Q   25064.57158966  .00087973  00000+0  99380-3 0  9992
2 44400  97.7082  81.0512 0007122 224.1007 135.9682 15.62160603314453
DUCHIFAT-3              
1 44854U 19089C   25064.84349892  .00048071  00000+0  13318-2 0  9993
2 44854  36.9466 239.4846 0005435 103.6626 256.4732 15.35972535288167
M2 PATHFINDER           
1 45727U 20037E   25064.45746605  .00007139  00000+0  56309-3 0  9996
2 45727  97.8015 246.4815 0011979 307.8848  52.1292 15.00995502255089
NETSAT-4                
1 46504U 20068U   25064.44873326  .00022865  00000+0  88392-3 0  9994
2 46504  97.8382  37.1708 0008744 158.6785 201.4818 15.26208848243868
NETSAT-3                
1 46505U 20068V   25064.48926591  .00020582  00000+0  82255-3 0  9998
2 46505  97.8374  36.3623 0007788 168.5093 191.6323 15.25129461243847
NETSAT-1                
1 46506U 20068W   25064.85879091  .00015924  00000+0  71358-3 0  9998
2 46506  97.8398  35.2119 0006563 180.6024 179.5203 15.21312448243792
NETSAT-2                
1 46507U 20068X   25064.48334457  .00022100  00000+0  86151-3 0  9991
2 46507  97.8377  36.7495 0005611 178.7582 181.3670 15.25958315243818
WILDTRACKCUBE-SIMBA     
1 47941U 21022K   25064.79511395  .00035231  00000+0  94415-3 0  9998
2 47941  97.4325 327.6122 0008924 306.7942  53.2484 15.37876047218436
GRBALPHA                
1 47959U 21022AD  25064.82607702  .00098652  00000+0  13655-2 0  9991
2 47959  97.4286 333.1769 0003443 284.9848  75.1026 15.56765847217624
LEDSAT                  
1 49069U 21073D   25064.74368397  .00055943  00000+0  11116-2 0  9992
2 49069  97.3993 143.2358 0011987  71.8630 288.3924 15.46714140196552
ROBUSTA-1F (MTCUBE 2)   
1 53109U 22080E   25064.09638521 -.00000003  00000+0  00000+0 0  9993
2 53109  70.1202 101.3904 0008421  28.3711 331.7406  6.42584319 61921
SITRO-AIS 5 (KATYS)     
1 57176U 23091L   25064.81204509  .00013565  00000+0  68892-3 0  9992
2 57176  97.5727 121.7177 0013662 304.3558  55.6381 15.16935870 93046
SITRO-AIS 6 (CHIRKIN)   
1 57192U 23091AC  25064.79450215  .00013307  00000+0  67707-3 0  9992
2 57192  97.5724 121.7243 0013616 304.0587  55.9352 15.16876194 93047
SITRO-AIS 8 (ANOKHIN)   
1 57193U 23091AD  25064.78197738  .00015993  00000+0  78780-3 0  9996
2 57193  97.5719 122.0337 0013222 303.9084  56.0891 15.17970622 93067
SITRO-AIS 7 (FARTUSHNIY)
1 57194U 23091AE  25064.81082968  .00013317  00000+0  67880-3 0  9996
2 57194  97.5725 121.6927 0013450 304.9582  55.0387 15.16814639 93043
SITRO-AIS 10 (BURDAEV)  
1 57199U 23091AK  25064.82768578  .00018079  00000+0  82124-3 0  9998
2 57199  97.5733 123.9289 0008853 287.4137  72.6130 15.20796125 93185
SITRO-AIS 9 (SHCHUKIN)  
1 57201U 23091AM  25064.76977984  .00017802  00000+0  81159-3 0  9998
2 57201  97.5729 123.8132 0008863 287.7704  72.2564 15.20674851 93171
SITRO-AIS 12 (SMIRENNIY)
1 57204U 23091AQ  25064.83035595  .00017674  00000+0  80115-3 0  9990
2 57204  97.5738 124.1142 0008795 280.5464  79.4780 15.20872735 93199
SITRO-AIS 11 (SHEFFER)  
1 57208U 23091AU  25064.79447097  .00017816  00000+0  80387-3 0  9992
2 57208  97.5733 124.1436 0008645 281.0911  78.9352 15.21030856 93191
VERONIKA                
1 58261U 23174F   25064.78830978  .00073452  00000+0  14175-2 0  9996
2 58261  97.4233 146.9271 0006005  29.2241 330.9344 15.47545339 73768
ROBUSTA-1E (ENSO)       
1 58470U 23185J   25064.77683429  .00048929  00000+0  10760-2 0  9993
2 58470  97.3854 137.6111 0008333  71.6950 288.5203 15.43803917 70193
SITRO-AIS 29            
1 59052U 24039B   25064.82151789  .00144378  00000+0  15098-2 0  9998
2 59052  97.4143  36.5094 0007942  33.8647 326.3118 15.63951774 56903
SITRO-AIS 30            
1 59053U 24039C   25064.82998431  .00132993  00000+0  14710-2 0  9992
2 59053  97.4139  36.3319 0008356  30.3408 329.8332 15.62543916 56881
SITRO-AIS 31            
1 59054U 24039D   25064.82550524  .00136180  00000+0  14520-2 0  9991
2 59054  97.4153  36.5046 0008349  34.1957 325.9838 15.63477380 56914
SITRO-AIS 33            
1 59055U 24039E   25064.85919001  .00138004  00000+0  14566-2 0  9991
2 59055  97.4141  36.6169 0007881  33.9590 326.2171 15.63735692 56916
SITRO-AIS 35            
1 59056U 24039F   25064.84583538  .00143743  00000+0  15010-2 0  9994
2 59056  97.4153  36.6372 0008135  37.6359 322.5468 15.63988574 56910
SITRO-AIS 32            
1 59057U 24039G   25064.84528186  .00132993  00000+0  14490-2 0  9999
2 59057  97.4155  36.4940 0008228  34.3073 325.8715 15.62933830 56906
SITRO-AIS 34            
1 59058U 24039H   25064.86039933  .00137071  00000+0  14514-2 0  9998
2 59058  97.4145  36.6194 0007881  34.9277 325.2497 15.63656713 56910
SITRO-AIS 36            
1 59059U 24039J   25064.83899057  .00135101  00000+0  14354-2 0  9991
2 59059  97.4135  36.6326 0007599  36.6903 323.4875 15.63578759 56911
SITRO-AIS 49            
1 59060U 24039K   25064.81772945  .00133771  00000+0  14618-2 0  9991
2 59060  97.4140  36.5189 0008034  34.4430 325.7347 15.62856756 56904
SITRO-AIS 50            
1 59061U 24039L   25064.83711435  .00141910  00000+0  14413-2 0  9998
2 59061  97.4129  36.7837 0007431  36.8974 323.2795 15.64707252 56923
SITRO-AIS 51            
1 59062U 24039M   25064.82217971  .00150078  00000+0  15038-2 0  9993
2 59062  97.4130  36.8039 0007374  37.5553 322.6220 15.65024166 56921
SITRO-AIS 52            
1 59063U 24039N   25064.86264960  .00146664  00000+0  14574-2 0  9998
2 59063  97.4140  36.9174 0007605  40.0974 320.0846 15.65243657 56932
SITRO-AIS 25            
1 59066U 24039R   25064.80344643  .00008328  00000+0  72121-3 0  9999
2 59066  95.3808 274.8874 0159576 158.9382 201.8513 14.87862906 54943
SITRO-AIS 26            
1 59067U 24039S   25064.81993221  .00007065  00000+0  61443-3 0  9995
2 59067  95.3808 274.8722 0159742 159.0585 201.7281 14.87719978 54949
SITRO-AIS 27            
1 59068U 24039T   25064.83538633  .00007263  00000+0  62758-3 0  9990
2 59068  95.3807 274.9735 0159057 158.5267 202.2729 14.88024984 54955
SITRO-AIS 28            
1 59071U 24039U   25064.75782358  .00007283  00000+0  62888-3 0  9996
2 59071  95.3810 274.9413 0158895 158.7209 202.0722 14.88066650 54949
GRBBETA                 
1 60237U 24128C   25064.67370912  .00008050  00000+0  62784-3 0  9999
2 60237  61.9928  53.6407 0043025  35.7635 324.6323 15.01161025 35792
OOV-CUBE (TUBSAT-30)    
1 60240U 24128F   25064.46158457  .00005514  00000+0  45759-3 0  9993
2 60240  61.9966  56.0093 0041600  32.0225 328.3379 14.99290801 35746
ROBUSTA-3A (MEDITERRAN*)
1 60243U 24128J   25064.35276807  .00013834  00000+0  10375-2 0  9993
2 60243  61.9897  54.7742 0041495  28.6166 331.7189 15.02251930 35758
LASARSAT                
1 62391U 24247Q   25064.41817732  .00024527  00000+0  10820-2 0  9992
2 62391  44.9918 322.1437 0005370 196.6426 163.4279 15.21403332 11399
CROCUBE                 
1 62394U 24247T   25064.74821129  .00023326  00000+0  10285-2 0  9997
2 62394  44.9915 320.3761 0005950 196.5000 163.5688 15.21443783 11445
